[{"OBJECT_NAME":"TRANSPORTER-13 OBJECT AH","OBJECT_ID":"2025-052AH","EPOCH":"2026-03-09T15:34:17.115744","MEAN_MOTION":15.25468797,"ECCENTRICITY":0.000807,"INCLINATION":97.3962,"RA_OF_ASC_NODE":323.1443,"ARG_OF_PERICENTER":138.7508,"MEAN_ANOMALY":221.4341,"EPHEMERIS_TYPE":0,"CLASSIFICATION_TYPE":"U","NORAD_CAT_ID":63241,"ELEMENT_SET_NO":999,"REV_AT_EPOCH":5475,"BSTAR":0.00055931,"MEAN_MOTION_DOT":0.00014108,"MEAN_MOTION_DDOT":0},{"OBJECT_NAME":"STARLINK-33709","OBJECT_ID":"2025-065W","EPOCH":"2026-03-09T03:32:28.744224","MEAN_MOTION":15.27595604,"ECCENTRICITY":0.00012134,"INCLINATION":42.9977,"RA_OF_ASC_NODE":110.3793,"ARG_OF_PERICENTER":265.0851,"MEAN_ANOMALY":94.9862,"EPHEMERIS_TYPE":0,"CLASSIFICATION_TYPE":"U","NORAD_CAT_ID":63419,"ELEMENT_SET_NO":999,"REV_AT_EPOCH":5275,"BSTAR":0.0015197217,"MEAN_MOTION_DOT":0.00041815,"MEAN_MOTION_DDOT":0}]
